name,website,google_category,domain,address,phone,lat,lng,status,evidence_quote,reason
DXA Knochendichtemessung Berlin | MVZ AnthroNUK,https://anthronuk.de/index.php/diagnostik/dxa-knochendichtemessung-berlin,Radiologe,anthronuk.de,"Müllerstraße 56-58, 13349 Berlin, Deutschland",,52.5540941,13.346222,NO,Die DXA-Methode im MVZ AnthroNUK gilt als Goldstandard zur Messung der Knochendichte und zur Osteoporose-Früherkennung...Die DXA-Messung ist die einzige von der Weltgesundheitsorganisation (WHO) und dem Dachverband Osteologie e.V. anerkannte und empfohlene Methode zur Knochendichtemessung...,
Evidia MVZ Radiologie Greifswalder Straße,https://evidia.de/standorte/diagnostikum-berlin-prenzlauer-berg,Medizinisches Zentrum für bildgebende Diagnostik,evidia.de,"Greifswalder Str. 136 - 138, 10409 Berlin, Deutschland",+49 30 666660,52.54626,13.44552,QUESTIONABLE,,Kein Text gescrapt
Abdomensonografie Berlin,https://praxis-auskunft.de/abdomensonografie-berlin/,Radiologe,praxis-auskunft.de,"Gartenstraße 1, 13088 Berlin, Deutschland",,52.5509906,13.4680468,QUESTIONABLE,,Kein Text gescrapt
Überörtliche Berufsausübungsgmeinschaft MVZ DTZ am Frankfurter Tor/ MVZ DTZ am OZB Onkozentrum Berlin,http://www.berlin-dtz.de/,Arzt,berlin-dtz.de,"Kadiner Str. 23, 10243 Berlin, Deutschland",+49 30 293697300,52.514945,13.4510811,NO,"Hierbei werden zwei Röntgenaufnahmen mit unterschiedlicher Intensitätso überlagert, dass der Anteil an Weichteilgewebe herausgerechnet und der Mineraliengehalt des Knochens bestimmt werden kann. Am DTZ wird hierfür die Dual-Röntgen-Absorptiometrie (DXA/DEXA), das weltweit empfohlene Standardverfahren, angewandt.",
PRIMENOSTICS – Privatpraxis für Radiologie und Nuklearmedizin,https://primenostics-berlin.de/,Medizinisches Zentrum für bildgebende Diagnostik,primenostics-berlin.de,"Marburger Str. 12, 10789 Berlin, Deutschland",+49 30 56796129,52.5021331,13.3367947,NO,"The available text snippet includes a detailed description of MRI diagnostics across various body parts and conditions by Dr. Sven Walter at PRIMENOSTICS. There is no mention of DXA/DEXA scans or assessments related to body composition such as fat percentage, muscle mass, or visceral fat. Instead, the text focuses solely on the uses and capabilities of MRI technology.",
SCANECA,https://scaneca.de/,Hersteller,scaneca.de,"Richard-Wagner-Straße 48-50, 10585 Berlin, Deutschland",+49 30 40365870,52.516091,13.3071806,QUESTIONABLE,,Kein Text gescrapt
Privatpraxis für Radiologie in der MEOCLINIC Berlin Mitte,https://www.meoclinic.de/fachgebiete/radiologie/,Radiologe,meoclinic.de,"Friedrichstraße 71, 10117 Berlin, Deutschland",+49 30 20944000,52.513474,13.3899161,NO,"Die DXA-Messung (Dual-Energy X-ray Absorptiometry) ist das Standardverfahren zur Messung der Knochendichte und dient zur sicheren Diagnose von Osteoporose. Dabei wird mithilfe einer speziellen Röntgentechnik die Knochenmineraldichte (BMD – Bone Mineral Density) an bestimmten Körperstellen, meist der Lendenwirbelsäule und der Hüfte bestimmt.",
Urban Sports Club,https://www.urbansportsclub.com/,Sportverein,urbansportsclub.com,"Voltairestraße 10, 10179 Berlin, Deutschland",,52.5177191,13.4173134,NO,"The InBody Scan at Wellness Club uses advanced bioelectrical impedance analysis to provide a reliable, segmental breakdown of your body composition. The 3D Body Analysis Scan at Upupgo utilizes lidar technology to create a precise copy of your body, and the HFS - 3D Bodyscan in Kreuzberg uses infrared 3D technology. None of these methods involve DXA/DEXA scanning.",
"Privatpraxis für Orthopädie, Sportmedizin und Osteopathie Dr. Carl Neisser und Dr. Katja Weise.",http://www.berlin-orthopaede.com/,Orthopäde,berlin-orthopaede.com,"Chausseestraße 105, 10115 Berlin, Deutschland",+49 30 24781661,52.5318696,13.3811782,QUESTIONABLE,,Kein Text gescrapt
Beyond Imaging Diagnostikzentrum,https://beyond-imaging.com/,Medizinisches Zentrum für bildgebende Diagnostik,beyond-imaging.com,"Reinhardtstraße 23-27, 10117 Berlin, Deutschland",+49 30 56796129,52.523105,13.3836691,QUESTIONABLE,,Kein Text gescrapt
Radiologie-Eins,https://www.radiologie-eins.de/?utm_source=local&utm_medium=organic&utm_campaign=gmb,Radiologe,radiologie-eins.de,"Clayallee 225 A, 14195 Berlin, Deutschland",+49 30 81003733,52.4499581,13.2689294,QUESTIONABLE,,Kein Text gescrapt
centrovital Spa & Sportclub,https://www.centrovital-berlin.de/spa-und-sportclub/#gbp,Spa und Fitness-Studio,centrovital-berlin.de,"Brauereihof 6, 13585 Berlin, Deutschland",+49 30 81875113,52.5465326,13.2101602,NO,"SCANECA is a revolutionary, holistic 3D body analysis system 'Made in Germany'. With the help of a detailed 3D avatar, relevant body circumferences are quickly measured precisely, posture is analysed and a detailed report on the most important health-related parameters is created.",
Privatpraxis für Orthopädie Berlin-Frohnau | Dr. med. Oleg Surminski,https://www.privat-orthopaedie.de/,Orthopäde,privat-orthopaedie.de,"Zeltinger Str. 3-5, 13465 Berlin, Deutschland",+49 30 40607901,52.6348445,13.2913223,NO,"DEXA (dual-energy X-ray absorptiometry) is the gold standard for measuring bone density, particularly in the lumbar spine and femoral neck.",
Praxen für diagnostische und therapeutische Nuklearmedizin,http://www.nuklearmedizin-berlin.de/,Arztpraxis,nuklearmedizin-berlin.de,"Düppelstraße 30, 12163 Berlin, Deutschland",+49 30 8979540,52.4591011,13.3257441,QUESTIONABLE,,Kein Text gescrapt
Poliklinik am UKB,https://www.bg-kliniken.de/gesundheitszentrum-ukb/poliklinik/,Poliklinik,bg-kliniken.de,"Warener Str. 1, 12683 Berlin, Deutschland",+49 30 201815100,52.5191193,13.5644025,QUESTIONABLE,,Kein Text gescrapt
Radiologie Spandau,http://www.radiologie-in-spandau.de/,Radiologe,radiologie-in-spandau.de,"Klosterstraße 34-35/1. OG, 13581 Berlin, Deutschland",+49 30 33939090,52.5321864,13.1982525,QUESTIONABLE,,Kein Text gescrapt
Dr. med. Margrit Lock,http://www.orthopaedie-friedenau-spandau.de/,Arzt,orthopaedie-friedenau-spandau.de,"Klosterstraße 34, 13581 Berlin, Deutschland",+49 30 3311660,52.5321312,13.1982921,QUESTIONABLE,,Kein Text gescrapt
"Dr. Michael Seidel, Privatpraxis für nichtoperative Orthopädie",http://www.orthopaedie-in-berlin.de/,Orthopäde,orthopaedie-in-berlin.de,"Potsdamer Ch 80, 14129 Berlin, Deutschland",+49 30 322902870,52.4269493,13.2166368,NO,Bioelektrische Impedanzanalyse zur Bestimmung des Körperfetts und der Muskelmasse,
Radiologie am Kurfürstendamm 37,https://radiologie-kudamm.de/,Radiologe,radiologie-kudamm.de,"Kurfürstendamm 37, 10719 Berlin, Deutschland",+49 30 8892050,52.5024724,13.3229302,QUESTIONABLE,,Kein Text gescrapt
Orthopädische Praxis,http://www.orthopaedie-praxis-berlin.de/kontakt.html,Orthopäde,orthopaedie-praxis-berlin.de,"Markt 2-3, 13597 Berlin, Deutschland",+49 30 67060922,52.5369997,13.2042949,QUESTIONABLE,,Kein Text gescrapt
MVZ Dr. Detlef Kaleth & Kollegen,http://www.kaleth-und-kollegen.de/,Zentrum für Schmerztherapie,kaleth-und-kollegen.de,"Bismarckstraße 95/96, 10625 Berlin, Deutschland",+49 30 80105150,52.5116322,13.3110178,QUESTIONABLE,,Kein Text gescrapt
orthozentrum plus Kaiserdamm,https://orthozentrumplus.de/,Orthopäde,orthozentrumplus.de,"Kaiserdamm 26, 14057 Berlin, Deutschland",+49 30 30830670,52.5102957,13.2813748,QUESTIONABLE,,Kein Text gescrapt
Wirbelsäulen-Gelenkzentrum-Westend | Weingärtner Orthopädie und Unfallchirurgie,https://www.wgz-westend.de/,Orthopäde,wgz-westend.de,"Reichsstraße 2, 14052 Berlin, Deutschland",+49 30 3011790,52.5106756,13.2709623,QUESTIONABLE,,Kein Text gescrapt
Apotheke Wutzky-Center,https://www.apo-wutzky.de/,Apotheke,apo-wutzky.de,"Joachim-Gottschalk-Weg 21, 12353 Berlin, Deutschland",+49 30 6612674,52.4228004,13.4754929,QUESTIONABLE,,Kein Text gescrapt
Medicus MVZ GmbH,http://medicusberlin.de/,Osteopath,medicusberlin.de,"Fennstraße 3, 13347 Berlin, Deutschland",+49 30 46060080,52.5415651,13.3688631,QUESTIONABLE,,Kein Text gescrapt
MVZ Policum Friedenau,https://policum.berlin/medizinische-einrichtungen/policum-berlin-friedenau,Poliklinik,policum.berlin,"Rubensstraße 119, 12157 Berlin, Deutschland",+49 30 7201100,52.4639485,13.344909,QUESTIONABLE,,Kein Text gescrapt
Bonedoctor Praxis für Orthopädie & Unfallchirurgie - Rose & Djohar,https://www.bonedoctor.de/,Orthopäde,bonedoctor.de,"Clayallee 175, 14195 Berlin, Deutschland",+49 30 8118101,52.4515578,13.2703212,QUESTIONABLE,,Kein Text gescrapt
Orthopädie Karlshorst,http://www.orthopaedie-karlshorst.de/,Arztpraxis,orthopaedie-karlshorst.de,"Weseler Str. 17, 10318 Berlin, Deutschland",+49 30 5088133,52.48328,13.5273,QUESTIONABLE,,Kein Text gescrapt
Herr Dr. med. Thomas Turczynsky,http://orthopaedie-schmargendorf.de/,Orthopäde,orthopaedie-schmargendorf.de,"Warnemünder Str. 8, 14199 Berlin, Deutschland",+49 30 897470401,52.4732275,13.2904125,QUESTIONABLE,,Kein Text gescrapt
"Dr. med. Christian Merettig, Dr. med. Wilfried Stöber",https://www.privatpraxis-orthopaede.de/,Orthopäde,privatpraxis-orthopaede.de,"Kurfürstendamm 37, 10719 Berlin, Deutschland",+49 30 88929090,52.5023899,13.3229293,NO,"Bone density measurement, also known as osteodensitometry, is a special X-ray examination (DXA: dual energy X-ray absorptiometry) that determines the mineral salt content of the bones. It provides information about how permeable the bones are to X-rays. The higher the permeability, the lower the bone density.",
Praxis am Kreuzberg,https://www.praxis-am-kreuzberg.de/,Allgemeinmediziner,praxis-am-kreuzberg.de,"Katzbachstraße 2, 10965 Berlin, Deutschland",+49 30 7858646,52.4909663,13.3764796,NO,"With our modern bioimpedance measurement from Seca, we now have a way to measure your body composition in just a few seconds.",
Dr.med. Matthias Mainka,http://www.orthozentrum26.de/,Orthopäde,orthozentrum26.de,"Kaiserdamm 26, 14057 Berlin, Deutschland",+49 30 30830670,52.5102957,13.2813748,QUESTIONABLE,,Kein Text gescrapt
Klinik für Radiologie | Charité Campus Mitte,https://radiologie.charite.de/,Akademischer Fachbereich,radiologie.charite.de,"Luisenstraße 10, 10117 Berlin, Deutschland",+49 30 450527082,52.5258536,13.378814,QUESTIONABLE,,Kein Text gescrapt
MediosApotheke Oranienburger Tor,https://www.mediosapotheke.de/standorte/oranienburgertor/,Apotheke,mediosapotheke.de,"Anike Oleski e.Kfr, Friedrichstraße 113a, 10117 Berlin, Deutschland",+49 30 2833530,52.5261177,13.387586,NO,"In regelmäßigen Abständen kontrollieren wir mit Hilfe der BIA-Messung, ob an der richtigen Stelle – nämlich am Körperfett – abgenommen wird und wertvolle Muskelmasse erhalten bleibt.",
Hochschulsport FU Berlin,https://www.hochschulsport.fu-berlin.de/,Sportanlage,hochschulsport.fu-berlin.de,"Königin-Luise-Straße 47, 14195 Berlin, Deutschland",+49 30 83853320,52.4588428,13.2899943,NO,The bioelectrical impedance analysis scale measures different resistances in the body with the help of an electrical impulse (weak current) and can conclude the components of your body.,
EVOPE Sports Performance Center,https://evope.com/,Fitnessstudio,evope.com,"Storkower Str. 105, 10407 Berlin, Deutschland",,52.5365165,13.4510837,QUESTIONABLE,,Kein Text gescrapt
Privatpraxis Orthopädie Karlshorst,https://privatpraxis-orthopaedie-karlshorst.de/,Arztpraxis,privatpraxis-orthopaedie-karlshorst.de,"Weseler Str. 17, 10318 Berlin, Deutschland",+49 30 50179833,52.483216,13.5273622,QUESTIONABLE,,Kein Text gescrapt
Radiologisches Institut | Alexianer St. Hedwig Krankenhaus,https://www.alexianer-berlin-hedwigkliniken.de/st-hedwig-krankenhaus/leistungen/ambulante-behandlung/radiologische-praxis,Medizinisches Zentrum für bildgebende Diagnostik,alexianer-berlin-hedwigkliniken.de,"Große Hamburger Straße 5-11 Hauptgebäude, OP-Flügel, Erdgeschoss, 10115 Berlin, Deutschland",+49 30 23112580,52.5258101,13.3972163,QUESTIONABLE,,Kein Text gescrapt
Praxis für Orthopädie und Unfallchirurgie Dr. med. Marc Fritschken,https://www.ouli.de/,Orthopäde,ouli.de,"Oberhofer Weg 2, 12209 Berlin, Deutschland",+49 30 7725015,52.4273979,13.3262215,QUESTIONABLE,,Kein Text gescrapt
Prof. Dr. med. Jürgen Mäurer - Radiologie Berlin-Mitte,https://radiologie-mitte-berlin.de/,Radiologe,radiologie-mitte-berlin.de,"Leipziger Str. 44, 10117 Berlin, Deutschland",+49 30 2039880,52.5102536,13.3961085,NO,Additional Services: Computed Tomography (CT) Digital X-ray Ultrasound Diagnostics Bone Density Measurement (DXA) Online Appointment,
Conradia Radiologie Berlin Charlottenburg,https://www.conradia.de/radiologie-360-berlin-charlottenburg-stuttgarter-platz/,Radiologe,conradia.de,"Bozener Str. 17, 10825 Berlin, Deutschland",+49 30 9711615,52.4870105,13.3382802,NO,In der Conradia Radiologie München Schwabing bieten wir Ihnen die Messung Ihrer Knochendichte sog. „DEXA“ Messung an... Hierdurch ist eine Früherkennung der Osteoporose möglich und bei entsprechend eingeleiteter Therapie das Knochenbruchrisiko deutlich reduzierbar.,
Pluspunkt Apotheke Potsdamer Platz,https://www.pluspunkt-apotheke.de/potsdamer-platz-berlin,Apotheke,pluspunkt-apotheke.de,"Linkstraße 4, 10785 Berlin, Deutschland",+49 30 2559220,52.5067992,13.3734385,NO,"The provided text snippets do not contain any specific sentences linking 'DEXA'/'DXA' directly with 'Körperfett', 'Fettanteil', 'Muskelmasse', 'Weichteilanalyse', or 'Gewebe'. The mentions of health and muscle-related topics are general discussions on muscle strengthening and healthcare products without reference to DXA/DEXA scans for body composition analysis.",
therapy turm65 - Physiotherapie Berlin-Moabit,https://www.therapy-turm65.de/,Physiotherapiezentrum,therapy-turm65.de,"Turmstr. 65, 10551 Berlin, Deutschland",+49 30 91203996,52.5269779,13.3302264,QUESTIONABLE,,Kein Text gescrapt
